NORAD_CAT_ID,OBJECT_NAME,OBJECT_TYPE,EPOCH,MEAN_MOTION,ECCENTRICITY,INCLINATION,RA_OF_ASC_NODE,ARG_OF_PERICENTER,MEAN_ANOMALY,BSTAR,MEAN_MOTION_DOT,MEAN_MOTION_DDOT,TLE_LINE0,TLE_LINE1,TLE_LINE2,SEMIMAJOR_AXIS,PERIOD,APOGEE,PERIGEE,DECAYED
51816.0,STARLINK-3603,PAYLOAD,2023-03-26 20:09:04,15.08838466,0.0001371,53.2181,132.2669,74.6122,285.5022,-6.8584e-05,-1.379e-05,0.0,0 STARLINK-3603,1 51816U 22017BA  23085.83963840 -.00001379  00000-0 -68584-4 0  9999,2 51816  53.2181 132.2669 0001371  74.6122 285.5022 15.08838466 61387,6917.885,95.438,540.699,538.802,0.0
51816.0,STARLINK-3603,PAYLOAD,2023-03-27 10:27:33,15.08830313,0.0001082,53.2176,129.5902,81.0905,279.021,0.00031232,4.685e-05,0.0,0 STARLINK-3603,1 51816U 22017BA  23086.43579926  .00004685  00000-0  31232-3 0  9994,2 51816  53.2176 129.5902 0001082  81.0905 279.0210 15.08830313 61357,6917.91,95.438,540.524,539.026,0.0
51816.0,STARLINK-3603,PAYLOAD,2023-03-27 19:59:52,15.08823862,0.0001154,53.2175,127.8058,74.7364,285.3756,0.00039471,5.997e-05,0.0,0 STARLINK-3603,1 51816U 22017BA  23086.83324678  .00005997  00000-0  39471-3 0  9990,2 51816  53.2175 127.8058 0001154  74.7364 285.3756 15.08823862 61533,6917.93,95.439,540.593,538.996,0.0
51816.0,STARLINK-3603,PAYLOAD,2023-03-28 10:18:20,15.08838374,0.0001132,53.2173,125.1295,70.3222,289.7892,0.00020353,2.953e-05,0.0,0 STARLINK-3603,1 51816U 22017BA  23087.42940399  .00002953  00000-0  20353-3 0  9998,2 51816  53.2173 125.1295 0001132  70.3222 289.7892 15.08838374 61629,6917.885,95.438,540.533,538.967,0.0
51816.0,STARLINK-3603,PAYLOAD,2023-03-28 11:53:43,15.08841992,0.0001035,53.216,124.8309,73.6486,286.462,0.00022438,3.285e-05,0.0,0 STARLINK-3603,1 51816U 22017BA  23087.49564049  .00003285  00000-0  22438-3 0  9994,2 51816  53.2160 124.8309 0001035  73.6486 286.4620 15.08841992 61518,6917.874,95.437,540.455,539.023,0.0
51816.0,STARLINK-3603,PAYLOAD,2023-03-28 19:50:39,15.0884243,0.000129,53.2159,123.3442,76.5917,283.5218,0.00017589,2.513e-05,0.0,0 STARLINK-3603,1 51816U 22017BA  23087.82684263  .00002513  00000-0  17589-3 0  9996,2 51816  53.2159 123.3442 0001290  76.5917 283.5218 15.08842430 61566,6917.873,95.437,540.63,538.846,0.0
51816.0,STARLINK-3603,PAYLOAD,2023-03-29 08:33:43,15.08848124,0.00013,53.2147,120.9652,75.748,284.3656,0.00013038,1.788e-05,0.0,0 STARLINK-3603,1 51816U 22017BA  23088.35675889  .00001788  00000-0  13038-3 0  9997,2 51816  53.2147 120.9652 0001300  75.7480 284.3656 15.08848124 61647,6917.856,95.437,540.62,538.821,0.0
51816.0,STARLINK-3603,PAYLOAD,2023-03-29 19:41:25,15.08848531,0.0001263,53.2142,118.8848,76.9958,283.1176,0.00011184,1.493e-05,0.0,0 STARLINK-3603,1 51816U 22017BA  23088.82043710  .00001493  00000-0  11184-3 0  9994,2 51816  53.2142 118.8848 0001263  76.9958 283.1176 15.08848531 61833,6917.854,95.437,540.593,538.846,0.0
51816.0,STARLINK-3603,PAYLOAD,2023-03-30 08:24:31,15.08841845,0.0001311,53.2166,116.5059,94.1305,265.9837,0.00012082,1.636e-05,0.0,0 STARLINK-3603,1 51816U 22017BA  23089.35036091  .00001636  00000-0  12082-3 0  9994,2 51816  53.2166 116.5059 0001311  94.1305 265.9837 15.08841845 61912,6917.875,95.437,540.647,538.833,0.0
51816.0,STARLINK-3603,PAYLOAD,2023-03-31 17:47:37,15.08843804,0.0001281,53.2165,110.2599,108.8309,251.2823,-2.5269e-05,-6.9e-06,0.0,0 STARLINK-3603,1 51816U 22017BA  23090.74140175 -.00000690  00000-0 -25269-4 0  9991,2 51816  53.2165 110.2599 0001281 108.8309 251.2823 15.08843804 62128,6917.869,95.437,540.62,538.848,0.0
51816.0,STARLINK-3603,PAYLOAD,2023-04-01 00:09:10,15.0883002,0.0001166,53.2166,109.0714,93.2958,266.8167,0.00016781,2.383e-05,0.0,0 STARLINK-3603,1 51816U 22017BA  23091.00636813  .00002383  00000-0  16781-3 0  9997,2 51816  53.2166 109.0714 0001166  93.2958 266.8167 15.08830020 62166,6917.911,95.438,540.583,538.969,0.0
51816.0,STARLINK-3603,PAYLOAD,2023-04-01 08:06:05,15.08839424,0.0001683,53.2169,107.5841,108.6532,251.4643,4.8268e-05,4.8e-06,0.0,0 STARLINK-3603,1 51816U 22017BA  23091.33756631  .00000480  00000-0  48268-4 0  9996,2 51816  53.2169 107.5841 0001683 108.6532 251.4643 15.08839424 62094,6917.882,95.438,540.911,538.583,0.0
51816.0,STARLINK-3603,PAYLOAD,2023-04-01 17:38:24,15.08836056,0.0001459,53.217,105.8,102.2164,257.8992,9.4749e-05,1.22e-05,0.0,0 STARLINK-3603,1 51816U 22017BA  23091.73500869  .00001220  00000-0  94749-4 0  9998,2 51816  53.2170 105.8000 0001459 102.2164 257.8992 15.08836056 62158,6917.892,95.438,540.767,538.748,0.0
51816.0,STARLINK-3603,PAYLOAD,2023-04-02 09:32:16,15.08836023,0.0001517,53.2171,102.8265,97.3165,262.8,5.9517e-05,6.59e-06,0.0,0 STARLINK-3603,1 51816U 22017BA  23092.39741238  .00000659  00000-0  59517-4 0  9997,2 51816  53.2171 102.8265 0001517  97.3165 262.8000 15.08836023 62373,6917.893,95.438,540.807,538.708,0.0
51816.0,STARLINK-3603,PAYLOAD,2023-04-02 12:43:02,15.08840264,0.0001408,53.2161,102.2313,97.0563,263.0589,9.8295e-05,1.277e-05,0.0,0 STARLINK-3603,1 51816U 22017BA  23092.52988826  .00001277  00000-0  98295-4 0  9991,2 51816  53.2161 102.2313 0001408  97.0563 263.0589 15.08840264 62274,6917.88,95.438,540.719,538.771,0.0
51816.0,STARLINK-3603,PAYLOAD,2023-04-02 17:29:11,15.08842867,0.0001365,53.2162,101.3386,98.9714,261.1432,6.5346e-05,7.52e-06,0.0,0 STARLINK-3603,1 51816U 22017BA  23092.72860701  .00000752  00000-0  65346-4 0  9992,2 51816  53.2162 101.3386 0001365  98.9714 261.1432 15.08842867 62429,6917.872,95.437,540.681,538.792,0.0
51816.0,STARLINK-3603,PAYLOAD,2023-04-03 04:36:54,15.0882714,9.14e-05,53.2163,99.2547,103.3445,256.7649,0.00022608,3.311e-05,0.0,0 STARLINK-3603,1 51816U 22017BA  23093.19229487  .00003311  00000-0  22608-3 0  9991,2 51816  53.2163  99.2547 0000914 103.3445 256.7649 15.08827140 62499,6917.92,95.438,540.417,539.152,0.0
51816.0,STARLINK-3603,PAYLOAD,2023-04-03 07:47:40,15.08841132,0.000138,53.2163,98.6599,99.836,260.2788,6.6709e-05,7.74e-06,0.0,0 STARLINK-3603,1 51816U 22017BA  23093.32477090  .00000774  00000-0  66709-4 0  9992,2 51816  53.2163  98.6599 0001380  99.8360 260.2788 15.08841132 62516,6917.877,95.437,540.697,538.787,0.0
51816.0,STARLINK-3603,PAYLOAD,2023-04-03 17:19:58,15.08843208,0.0001384,53.2166,96.8754,97.4205,262.6944,9.2434e-05,1.184e-05,0.0,0 STARLINK-3603,1 51816U 22017BA  23093.72220887  .00001184  00000-0  92434-4 0  9996,2 51816  53.2166  96.8754 0001384  97.4205 262.6944 15.08843208 62457,6917.871,95.437,540.693,538.778,0.0
51816.0,STARLINK-3603,PAYLOAD,2023-04-04 07:38:27,15.08843496,0.0001431,53.2172,94.1995,88.2613,271.8543,9.927e-05,1.292e-05,0.0,0 STARLINK-3603,1 51816U 22017BA  23094.31837018  .00001292  00000-0  99270-4 0  9997,2 51816  53.2172  94.1995 0001431  88.2613 271.8543 15.08843496 62542,6917.87,95.437,540.725,538.745,0.0
51816.0,STARLINK-3603,PAYLOAD,2023-04-05 09:04:37,15.0884279,0.0001489,53.2177,89.442,86.8501,273.2662,5.7152e-05,6.22e-06,0.0,0 STARLINK-3603,1 51816U 22017BA  23095.37821109  .00000622  00000-0  57152-4 0  9997,2 51816  53.2177  89.4420 0001489  86.8501 273.2662 15.08842790 62825,6917.872,95.437,540.767,538.707,0.0
51816.0,STARLINK-3603,PAYLOAD,2023-04-05 17:01:33,15.08840989,0.0001442,53.2175,87.9561,92.4553,267.6605,5.8129e-05,6.37e-06,0.0,0 STARLINK-3603,1 51816U 22017BA  23095.70941150  .00000637  00000-0  58129-4 0  9994,2 51816  53.2175  87.9561 0001442  92.4553 267.6605 15.08840989 62755,6917.877,95.437,540.74,538.745,0.0
51816.0,STARLINK-3603,PAYLOAD,2023-04-06 08:55:23,15.08850558,0.000138,53.2167,84.9811,106.7954,253.3189,-5.8457e-06,-3.81e-06,0.0,0 STARLINK-3603,1 51816U 22017BA  23096.37180419 -.00000381  00000-0 -58457-5 0  9994,2 51816  53.2167  84.9811 0001380 106.7954 253.3189 15.08850558 62859,6917.848,95.437,540.668,538.758,0.0
51816.0,STARLINK-3603,PAYLOAD,2023-04-07 02:24:39,15.08833951,0.0001207,53.2163,81.7092,106.7549,253.3576,8.9727e-06,-1.45e-06,0.0,0 STARLINK-3603,1 51816U 22017BA  23097.10045544 -.00000145  00000-0  89727-5 0  9996,2 51816  53.2163  81.7092 0001207 106.7549 253.3576 15.08833951 63083,6917.899,95.438,540.599,538.929,0.0
51816.0,STARLINK-3603,PAYLOAD,2023-04-07 08:46:11,15.08834863,0.0001213,53.2165,80.5202,105.2085,254.9041,1.223e-05,-9.3e-07,0.0,0 STARLINK-3603,1 51816U 22017BA  23097.36541546 -.00000093  00000-0  12230-4 0  9993,2 51816  53.2165  80.5202 0001213 105.2085 254.9041 15.08834863 63000,6917.896,95.438,540.6,538.922,0.0
51816.0,STARLINK-3603,PAYLOAD,2023-04-08 02:15:25,15.08841847,0.000124,53.2172,77.249,106.4911,253.6217,3.8323e-05,3.22e-06,0.0,0 STARLINK-3603,1 51816U 22017BA  23098.09405074  .00000322  00000-0  38323-4 0  9994,2 51816  53.2172  77.2490 0001240 106.4911 253.6217 15.08841847 63237,6917.875,95.437,540.598,538.882,0.0
51816.0,STARLINK-3603,PAYLOAD,2023-04-08 08:36:58,15.08848577,0.0001176,53.2169,76.0617,93.3255,266.7872,5.1222e-05,5.28e-06,0.0,0 STARLINK-3603,1 51816U 22017BA  23098.35900667  .00000528  00000-0  51222-4 0  9992,2 51816  53.2169  76.0617 0001176  93.3255 266.7872 15.08848577 63154,6917.854,95.437,540.533,538.906,0.0
51816.0,STARLINK-3603,PAYLOAD,2023-04-08 21:20:04,15.08831696,0.0001197,53.2172,73.6831,93.5312,266.5817,5.3895e-05,5.7e-06,0.0,0 STARLINK-3603,1 51816U 22017BA  23098.88893815  .00000570  00000-0  53895-4 0  9991,2 51816  53.2172  73.6831 0001197  93.5312 266.5817 15.08831696 63351,6917.906,95.438,540.599,538.943,0.0
51816.0,STARLINK-3603,PAYLOAD,2023-04-09 06:52:22,15.08838766,0.0001008,53.2162,71.8981,100.8481,259.2625,6.4713e-05,7.42e-06,0.0,0 STARLINK-3603,1 51816U 22017BA  23099.28637457  .00000742  00000-0  64713-4 0  9996,2 51816  53.2162  71.8981 0001008 100.8481 259.2625 15.08838766 63290,6917.884,95.438,540.446,539.052,0.0
51816.0,STARLINK-3603,PAYLOAD,2023-04-10 08:18:32,15.08844672,9.81e-05,53.2169,67.141,95.3371,264.7733,3.7451e-05,3.08e-06,0.0,0 STARLINK-3603,1 51816U 22017BA  23100.34621428  .00000308  00000-0  37451-4 0  9994,2 51816  53.2169  67.1410 0000981  95.3371 264.7733 15.08844672 63572,6917.866,95.437,540.41,539.052,0.0
